[
    {
        "key": 14243,
        "address": "217 E MAIN ST JENKS OK 74037-3956",
        "street": "217 E MAIN ST",
        "city": "Jenks",
        "state": "OK",
        "zip": 740373956
    },
    {
        "key": 14242,
        "address": "5272 S LEWIS AVE STE 108 TULSA OK 74105-6563",
        "street": "5272 S LEWIS AVE",
        "city": "Tulsa",
        "state": "OK",
        "zip": 741056563
    },
    {
        "key": 14241,
        "address": "10900 E 21ST ST TULSA OK 74129-1630",
        "street": "10900 E 21ST ST",
        "city": "Tulsa",
        "state": "OK",
        "zip": 741291630
    },
    {
        "key": 14240,
        "address": "36 E CAMERON ST TULSA OK 74103",
        "street": "36 E CAMERON ST",
        "city": "Tulsa",
        "state": "OK",
        "zip": 741030000
    },
    {
        "key": 14239,
        "address": "6925 S LEWIS AVE TULSA OK 74136-3914",
        "street": "6925 S LEWIS AVE",
        "city": "Tulsa",
        "state": "OK",
        "zip": 741363914
    },
    {
        "key": 14238,
        "address": "507 N TACOMA AVE TULSA OK 74127-6716",
        "street": "507 N TACOMA AVE",
        "city": "Tulsa",
        "state": "OK",
        "zip": 741276716
    },
    {
        "key": 14237,
        "address": "3515 S PEORIA AVE SPC 3515 TULSA OK 74105-2528",
        "street": "3515 S PEORIA AVE",
        "city": "Tulsa",
        "state": "OK",
        "zip": 741052528
    },
    {
        "key": 14236,
        "address": "1010 N SHERIDAN ROAD TULSA OK 74115",
        "street": "1010 N SHERIDAN ROAD",
        "city": "Tulsa",
        "state": "OK",
        "zip": 741150000
    },
    {
        "key": 14235,
        "address": "711 N. PEORIA AVE. TULSA OK 74106",
        "street": "711 N. PEORIA AVE.",
        "city": "Tulsa",
        "state": "OK",
        "zip": 741060000
    },
    {
        "key": 14234,
        "address": "2716 N KENOSHA AVE TULSA OK 74106-2441",
        "street": "2716 N KENOSHA AVE",
        "city": "Tulsa",
        "state": "OK",
        "zip": 741062441
    },
    {
        "key": 14233,
        "address": "623 N BIRCH AVE BROKEN ARROW OK 74012-2512",
        "street": "623 N BIRCH AVE",
        "city": "Broken Arrow",
        "state": "OK",
        "zip": 740122512
    },
    {
        "key": 14232,
        "address": "10516 S SANDUSKY AVE TULSA OK 74137-6214",
        "street": "10516 S SANDUSKY AVE",
        "city": "Tulsa",
        "state": "OK",
        "zip": 741376214
    },
    {
        "key": 14231,
        "address": "9242 S SHERIDAN RD TULSA OK 74133-5435",
        "street": "9242 S SHERIDAN RD",
        "city": "Tulsa",
        "state": "OK",
        "zip": 741335435
    },
    {
        "key": 14230,
        "address": "4315 E 23RD ST TULSA OK 74114-3632",
        "street": "4315 E 23RD ST",
        "city": "Tulsa",
        "state": "OK",
        "zip": 741143632
    },
    {
        "key": 14229,
        "address": "6333 E 120TH CT STE F TULSA OK 74137",
        "street": "6333 E 120TH CT",
        "city": "Tulsa",
        "state": "OK",
        "zip": 741370000
    },
    {
        "key": 14228,
        "address": "200 LEAR JET LN TULSA OK 74132-4009",
        "street": "200 LEAR JET LN",
        "city": "Tulsa",
        "state": "OK",
        "zip": 741324009
    },
    {
        "key": 14227,
        "address": "161 W M ST JENKS OK 74037-2148",
        "street": "161 W M ST",
        "city": "Jenks",
        "state": "OK",
        "zip": 740372148
    },
    {
        "key": 14226,
        "address": "17555 N 115TH EAST AVE COLLINSVILLE OK 74021-451",
        "street": "17555 N 115TH EAST AVE",
        "city": "Collinsville",
        "state": "OK",
        "zip": 740214513
    },
    {
        "key": 14225,
        "address": "708 S ASPEN AVE BROKEN ARROW OK 74012-4801",
        "street": "708 S ASPEN AVE",
        "city": "Broken Arrow",
        "state": "OK",
        "zip": 740124801
    },
    {
        "key": 14224,
        "address": "750 W 97TH PL S JENKS OK 74037-3435",
        "street": "750 W 97TH PL S",
        "city": "Jenks",
        "state": "OK",
        "zip": 740373435
    },
    {
        "key": 14223,
        "address": "907 S DETROIT AVE TULSA OK 74120-4205",
        "street": "907 S DETROIT AVE",
        "city": "Tulsa",
        "state": "OK",
        "zip": 741204205
    },
    {
        "key": 14222,
        "address": "2304 S GARNETT RD TULSA OK 74129-5110",
        "street": "2304 S GARNETT RD",
        "city": "Tulsa",
        "state": "OK",
        "zip": 741295110
    },
    {
        "key": 14221,
        "address": "18715 E ADMIRAL PL CATOOSA OK 74015-2819",
        "street": "18715 E ADMIRAL PL",
        "city": "Catoosa",
        "state": "OK",
        "zip": 740152819
    },
    {
        "key": 14220,
        "address": "11308 N GARNETT RD OWASSO OK 74055-4240",
        "street": "11308 N GARNETT RD",
        "city": "Owasso",
        "state": "OK",
        "zip": 740554240
    },
    {
        "key": 14219,
        "address": "1325 E 15TH ST STE 205 TULSA OK 74120-5851",
        "street": "1325 E 15TH ST",
        "city": "Tulsa",
        "state": "OK",
        "zip": 741205851
    },
    {
        "key": 14218,
        "address": "12317 N 107TH EAST PL COLLINSVILLE OK 74021-5588",
        "street": "12317 N 107TH EAST PL",
        "city": "Collinsville",
        "state": "OK",
        "zip": 740215588
    },
    {
        "key": 14217,
        "address": "600 RIVERWALK TERRACE JENKS OK 74037",
        "street": "600 RIVERWALK TERRACE",
        "city": "Jenks",
        "state": "OK",
        "zip": 740370000
    },
    {
        "key": 14216,
        "address": "610 W MAIN ST JENKS OK 74037-3517",
        "street": "610 W MAIN ST",
        "city": "Jenks",
        "state": "OK",
        "zip": 740373517
    },
    {
        "key": 14215,
        "address": "7739 E 21ST ST TULSA OK 74129-1216",
        "street": "7739 E 21ST ST",
        "city": "Tulsa",
        "state": "OK",
        "zip": 741291216
    },
    {
        "key": 14214,
        "address": "11211 N GARNETT RD BLDG A OWASSO OK 74055-4213",
        "street": "11211 N GARNETT RD",
        "city": "Owasso",
        "state": "OK",
        "zip": 740554213
    },
    {
        "key": 14213,
        "address": "1060 S MINGO RD STE B TULSA OK 74128-1005",
        "street": "1060 S MINGO RD",
        "city": "Tulsa",
        "state": "OK",
        "zip": 741281005
    },
    {
        "key": 14212,
        "address": "709 E 141ST ST GLENPOOL OK 74033-3613",
        "street": "709 E 141ST ST",
        "city": "Glenpool",
        "state": "OK",
        "zip": 740333613
    },
    {
        "key": 14211,
        "address": "427 S BOSTON STE 116 TULSA OK 74103",
        "street": "427 S BOSTON",
        "city": "Tulsa",
        "state": "OK",
        "zip": 741030000
    },
    {
        "key": 14210,
        "address": "5513 S 70TH EAST PL TULSA OK 74145-8540",
        "street": "5513 S 70TH EAST PL",
        "city": "Tulsa",
        "state": "OK",
        "zip": 741458540
    },
    {
        "key": 14209,
        "address": "11720 E 11TH ST TULSA OK 74128-4402",
        "street": "11720 E 11TH ST",
        "city": "Tulsa",
        "state": "OK",
        "zip": 741284402
    },
    {
        "key": 14208,
        "address": "6117 S MINGO RD STE F TULSA OK 74133-6313",
        "street": "6117 S MINGO RD",
        "city": "Tulsa",
        "state": "OK",
        "zip": 741336313
    },
    {
        "key": 14207,
        "address": "912 W MAIN ST COLLINSVILLE OK 74021-3212",
        "street": "912 W MAIN ST",
        "city": "Collinsville",
        "state": "OK",
        "zip": 740213212
    },
    {
        "key": 14206,
        "address": "6808 S MEMORIAL DR TULSA OK 74133-2066",
        "street": "6808 S MEMORIAL DR",
        "city": "Tulsa",
        "state": "OK",
        "zip": 741332066
    },
    {
        "key": 14205,
        "address": "10915 E 31ST ST STE 15B TULSA OK 74146-1743",
        "street": "10915 E 31ST ST",
        "city": "Tulsa",
        "state": "OK",
        "zip": 741461743
    },
    {
        "key": 14204,
        "address": "6102 N MAIN ST TULSA OK 74126-1428",
        "street": "6102 N MAIN ST",
        "city": "Tulsa",
        "state": "OK",
        "zip": 741261428
    },
    {
        "key": 14203,
        "address": "317 S TRENTON AVE TULSA OK 74120-2819",
        "street": "317 S TRENTON AVE",
        "city": "Tulsa",
        "state": "OK",
        "zip": 741202819
    },
    {
        "key": 14202,
        "address": "2810 E 15TH ST TULSA OK 74104-5244",
        "street": "2810 E 15TH ST",
        "city": "Tulsa",
        "state": "OK",
        "zip": 741045244
    },
    {
        "key": 14201,
        "address": "11518 S JUNIPER ST JENKS OK 74037-2054",
        "street": "11518 S JUNIPER ST",
        "city": "Jenks",
        "state": "OK",
        "zip": 740372054
    },
    {
        "key": 14200,
        "address": "629 W 1ST ST STE 1 TULSA OK 74127-8747",
        "street": "629 W 1ST ST",
        "city": "Tulsa",
        "state": "OK",
        "zip": 741278747
    }
]
